//
// GENERATED FILE
//

use super::*;
use f2rust_std::*;

const NGRAVS: i32 = 3;
const NGRAVC: i32 = 8;
const WGS721: i32 = 1;
const WGS72: i32 = 2;
const WGS84: i32 = 3;
const P_RAD: i32 = 1;
const P_XKE: i32 = 2;
const P_MU: i32 = 3;
const P_TUMN: i32 = 4;
const P_J2: i32 = 5;
const P_J3: i32 = 6;
const P_J4: i32 = 7;
const P_J3J2: i32 = 8;
const K_J2: i32 = 1;
const K_J3: i32 = 2;
const K_J4: i32 = 3;
const K_KE: i32 = 4;
const K_QO: i32 = 5;
const K_SO: i32 = 6;
const K_ER: i32 = 7;
const K_AE: i32 = 8;
const NGEO: i32 = K_AE;
const AFSPC: i32 = 1;
const IMPRVD: i32 = 2;
const KNDT20: i32 = 1;
const KNDD60: i32 = 2;
const KBSTAR: i32 = 3;
const KINCL: i32 = 4;
const KNODE0: i32 = 5;
const KECC: i32 = 6;
const KOMEGA: i32 = 7;
const KMO: i32 = 8;
const KNO: i32 = 9;
const KEPOCH: i32 = 10;
const NELEMS: i32 = KEPOCH;
const LNSIZE: i32 = 80;
const NMIX: i32 = 29;
const MED: f64 = 0.0000000001;

//$Procedure F_TLE ( Family of tests for TLE evaluator )
pub fn F_TLE(OK: &mut bool, ctx: &mut Context) -> f2rust_std::Result<()> {
    let mut MSG = ActualCharArray::new(24, 1..=NMIX);
    let mut ELE = ActualCharArray::new(LNSIZE, 1..=(NMIX * 2));
    let mut GEOPHS = StackArray::<f64, 8>::new(1..=8);
    let mut ELEMS = StackArray::<f64, 10>::new(1..=10);
    let mut EXPSTA = StackArray2D::<f64, 174>::new(1..=6, 1..=NMIX);
    let mut OFFSET = StackArray::<f64, 29>::new(1..=NMIX);
    let mut STATE = StackArray::<f64, 6>::new(1..=6);
    let mut TOL = StackArray::<f64, 29>::new(1..=NMIX);
    let mut ET: f64 = 0.0;
    let mut N: i32 = 0;
    let mut ERR = StackArray::<bool, 29>::new(1..=NMIX);

    //
    // Local Parameters
    //

    //
    // Local Variables
    //

    //
    // Begin every test family with an open call.
    //
    testutil::TOPEN(b"F_TLE", ctx)?;

    //
    // Case: -----------------------------------------------------------
    //
    testutil::TCASE(b"Preliminaries", ctx)?;

    testutil::TSTLSK(ctx)?;
    testutil::CHCKXC(false, b" ", OK, ctx)?;

    GEOPHS[1] = 0.001082616;
    GEOPHS[2] = -0.00000253881;
    GEOPHS[3] = -0.00000165597;
    GEOPHS[4] = 0.0743669161;
    GEOPHS[5] = 120.0;
    GEOPHS[6] = 78.0;
    GEOPHS[7] = 6378.135;
    GEOPHS[8] = 1.0;

    //
    // Case: -----------------------------------------------------------
    //
    testutil::TCASE(b"TLE set mixing low and high orbit elements.", ctx)?;

    //
    // Test TLE evaluations using SPICE code, compare results
    // to values calculated from non SPICE routines.
    //
    // EXPSTA data values taken from output of EVSGP4.
    // That program uses only Vallado 2006 code for TLE
    // propagation.
    //
    // Evaluate each TLE at epoch, or at an epoch + offset
    // that causes an error signal.
    //
    // ERR, boolean indicating if expected SPICE error.
    // MSG, expected SPICE error message, if any.
    // OFFSET, from TLE epoch, in TDB seconds.
    //
    N = 1;

    fstr::assign(
        ELE.get_mut(((2 * N) - 1)),
        b"1 00005U 58002B   00179.78495062  .00000023  00000-0  28098-4 0  4753",
    );
    fstr::assign(
        ELE.get_mut((2 * N)),
        b"2 00005  34.2682 348.7242 1859667 331.7664  19.3264 10.82419157413667",
    );
    ERR[N] = false;
    fstr::assign(MSG.get_mut(N), b" ");
    OFFSET[N] = 0.0;

    EXPSTA[[1, N]] = 7022.465290574917;
    EXPSTA[[2, N]] = -1400.0829671389206;
    EXPSTA[[3, N]] = 0.03995155289906709;
    EXPSTA[[4, N]] = 1.8938410139509;
    EXPSTA[[5, N]] = 6.405893757305204;
    EXPSTA[[6, N]] = 4.534807249007841;

    TOL[N] = MED;

    N = (N + 1);

    fstr::assign(
        ELE.get_mut(((2 * N) - 1)),
        b"1 04632U 70093B   04031.91070959 -.00000084  00000-0  10000-3 0  9955",
    );
    fstr::assign(
        ELE.get_mut((2 * N)),
        b"2 04632  11.4628 273.1101 1450506 207.6000 143.9350  1.20231981 44145",
    );
    ERR[N] = false;
    fstr::assign(MSG.get_mut(N), b" ");
    OFFSET[N] = 0.0;

    EXPSTA[[1, N]] = 2334.114500153129;
    EXPSTA[[2, N]] = -41920.44034102363;
    EXPSTA[[3, N]] = -0.03867437380474418;
    EXPSTA[[4, N]] = 2.826321031169248;
    EXPSTA[[5, N]] = -0.06509166397740397;
    EXPSTA[[6, N]] = 0.5709360528850898;

    TOL[N] = MED;

    N = (N + 1);

    fstr::assign(
        ELE.get_mut(((2 * N) - 1)),
        b"1 06251U 62025E   06176.82412014  .00008885  00000-0  12808-3 0  3985",
    );
    fstr::assign(
        ELE.get_mut((2 * N)),
        b"2 06251  58.0579  54.0425 0030035 139.1568 221.1854 15.56387291  6774",
    );
    ERR[N] = false;
    fstr::assign(MSG.get_mut(N), b" ");
    OFFSET[N] = 0.0;

    EXPSTA[[1, N]] = 3988.310225809925;
    EXPSTA[[2, N]] = 5498.966570716392;
    EXPSTA[[3, N]] = 0.9005587831151146;
    EXPSTA[[4, N]] = -3.290032736958736;
    EXPSTA[[5, N]] = 2.357652818934991;
    EXPSTA[[6, N]] = 6.496623473026671;

    TOL[N] = MED;

    N = (N + 1);

    fstr::assign(
        ELE.get_mut(((2 * N) - 1)),
        b"1 08195U 75081A   06176.33215444  .00000099  00000-0  11873-3 0   813",
    );
    fstr::assign(
        ELE.get_mut((2 * N)),
        b"2 08195  64.1586 279.0717 6877146 264.7651  20.2257  2.00491383225656",
    );
    ERR[N] = false;
    fstr::assign(MSG.get_mut(N), b" ");
    OFFSET[N] = 0.0;

    EXPSTA[[1, N]] = 2349.894832798315;
    EXPSTA[[2, N]] = -14785.938111219008;
    EXPSTA[[3, N]] = 0.0211937769819722;
    EXPSTA[[4, N]] = 2.721488094749182;
    EXPSTA[[5, N]] = -3.2568116536917593;
    EXPSTA[[6, N]] = 4.498416671032978;

    TOL[N] = (MED * 10.0);

    N = (N + 1);

    fstr::assign(
        ELE.get_mut(((2 * N) - 1)),
        b"1 09880U 77021A   06176.56157475  .00000421  00000-0  10000-3 0  9814",
    );
    fstr::assign(
        ELE.get_mut((2 * N)),
        b"2 09880  64.5968 349.3786 7069051 270.0229  16.3320  2.00813614112380",
    );
    ERR[N] = false;
    fstr::assign(MSG.get_mut(N), b" ");
    OFFSET[N] = 0.0;

    EXPSTA[[1, N]] = 13020.067503971142;
    EXPSTA[[2, N]] = -2449.0719342705006;
    EXPSTA[[3, N]] = 1.1589602950956694;
    EXPSTA[[4, N]] = 4.247363933600489;
    EXPSTA[[5, N]] = 1.597178500372786;
    EXPSTA[[6, N]] = 4.956708609916437;

    TOL[N] = MED;

    N = (N + 1);

    fstr::assign(
        ELE.get_mut(((2 * N) - 1)),
        b"1 09998U 74033F   05148.79417928 -.00000112  00000-0  00000+0 0  4480",
    );
    fstr::assign(
        ELE.get_mut((2 * N)),
        b"2 09998   9.4958 313.1750 0270971 327.5225  30.8097  1.16186785 45878",
    );
    ERR[N] = false;
    fstr::assign(MSG.get_mut(N), b" ");
    OFFSET[N] = 0.0;

    EXPSTA[[1, N]] = 25532.9894650758;
    EXPSTA[[2, N]] = -27244.263271425338;
    EXPSTA[[3, N]] = -1.1157242099297304;
    EXPSTA[[4, N]] = 2.410283884337143;
    EXPSTA[[5, N]] = 2.1941756819375415;
    EXPSTA[[6, N]] = 0.5458885255942755;

    TOL[N] = MED;

    N = (N + 1);

    fstr::assign(
        ELE.get_mut(((2 * N) - 1)),
        b"1 11801U          80230.29629788  .01431103  00000-0  14311-1      13",
    );
    fstr::assign(
        ELE.get_mut((2 * N)),
        b"2 11801  46.7916 230.4354 7318036  47.4722  10.4117  2.28537848    13",
    );
    ERR[N] = false;
    fstr::assign(MSG.get_mut(N), b" ");
    OFFSET[N] = 0.0;

    EXPSTA[[1, N]] = 7473.371022692968;
    EXPSTA[[2, N]] = 428.94748300162695;
    EXPSTA[[3, N]] = 5828.748466090221;
    EXPSTA[[4, N]] = 5.107155389343543;
    EXPSTA[[5, N]] = 6.444680302711043;
    EXPSTA[[6, N]] = -0.1861332972887869;

    TOL[N] = MED;

    N = (N + 1);

    fstr::assign(
        ELE.get_mut(((2 * N) - 1)),
        b"1 14128U 83058A   06176.02844893 -.00000158  00000-0  10000-3 0  9627",
    );
    fstr::assign(
        ELE.get_mut((2 * N)),
        b"2 14128  11.4384  35.2134 0011562  26.4582 333.5652  0.98870114 46093",
    );
    ERR[N] = false;
    fstr::assign(MSG.get_mut(N), b" ");
    OFFSET[N] = 0.0;

    EXPSTA[[1, N]] = 34747.5793166293;
    EXPSTA[[2, N]] = 24502.371133501172;
    EXPSTA[[3, N]] = -1.3283298582193905;
    EXPSTA[[4, N]] = -1.73164266139195;
    EXPSTA[[5, N]] = 2.4527726147067073;
    EXPSTA[[6, N]] = 0.6085100805112434;

    TOL[N] = MED;

    N = (N + 1);

    fstr::assign(
        ELE.get_mut(((2 * N) - 1)),
        b"1 16925U 86065D   06151.67415771  .02550794 -30915-6  18784-3 0  4486",
    );
    fstr::assign(
        ELE.get_mut((2 * N)),
        b"2 16925  62.0906 295.0239 5596327 245.1593  47.9690  4.88511875148616",
    );
    ERR[N] = false;
    fstr::assign(MSG.get_mut(N), b" ");
    OFFSET[N] = 0.0;

    EXPSTA[[1, N]] = 5559.116866702386;
    EXPSTA[[2, N]] = -11941.04090426173;
    EXPSTA[[3, N]] = -19.412352061843578;
    EXPSTA[[4, N]] = 3.392116760624535;
    EXPSTA[[5, N]] = -1.9469851236560267;
    EXPSTA[[6, N]] = 4.250755851183446;

    TOL[N] = MED;

    N = (N + 1);

    fstr::assign(
        ELE.get_mut(((2 * N) - 1)),
        b"1 20413U 83020D   05363.79166667  .00000000  00000-0  00000+0 0  7041",
    );
    fstr::assign(
        ELE.get_mut((2 * N)),
        b"2 20413  12.3514 187.4253 7864447 196.3027 356.5478  0.24690082  7978",
    );
    ERR[N] = false;
    fstr::assign(MSG.get_mut(N), b" ");
    OFFSET[N] = 0.0;

    EXPSTA[[1, N]] = 25123.292899943484;
    EXPSTA[[2, N]] = -13225.49965893251;
    EXPSTA[[3, N]] = 3249.4035177273227;
    EXPSTA[[4, N]] = 0.4886834189156268;
    EXPSTA[[5, N]] = 4.797897592033025;
    EXPSTA[[6, N]] = -0.9611196924769664;

    TOL[N] = MED;

    N = (N + 1);

    fstr::assign(
        ELE.get_mut(((2 * N) - 1)),
        b"1 21897U 92011A   06176.02341244 -.00001273  00000-0 -13525-3 0  3044",
    );
    fstr::assign(
        ELE.get_mut((2 * N)),
        b"2 21897  62.1749 198.0096 7421690 253.0462  20.1561  2.01269994104880",
    );
    ERR[N] = false;
    fstr::assign(MSG.get_mut(N), b" ");
    OFFSET[N] = 0.0;

    EXPSTA[[1, N]] = -14464.721347520543;
    EXPSTA[[2, N]] = -4699.195174470596;
    EXPSTA[[3, N]] = 0.06681684809516293;
    EXPSTA[[4, N]] = -3.2493120125354;
    EXPSTA[[5, N]] = -3.281032705977549;
    EXPSTA[[6, N]] = 4.007046938418753;

